start=new Date('2021-11-25T00:00:00.000Z').valueOf();
sats=[{"FILE":"3223205","REF_FRAME":"TEME","MEAN_ANOMALY":"311.2999","BSTAR":"0.00027163000000","MEAN_MOTION_DOT":"0.00011428","LAUNCH_DATE":"2021-02-04","OBJECT_TYPE":"PAYLOAD","EPHEMERIS_TYPE":"0","APOAPSIS":"441.067","GP_ID":"190425674","NORAD_CAT_ID":"47569","CENTER_NAME":"EARTH","CLASSIFICATION_TYPE":"U","INCLINATION":"53.0502","MEAN_ELEMENT_THEORY":"SGP4","MEAN_MOTION_DDOT":"0.0000000000000","OBJECT_ID":"2021-009X","TLE_LINE2":"2 47569  53.0502 201.2068 0001963  48.8174 311.2999 15.42162925 44939","PERIOD":"93.375","RA_OF_ASC_NODE":"201.2068","SEMIMAJOR_AXIS":"6817.864","ARG_OF_PERICENTER":"48.8174","MEAN_MOTION":"15.42162925","SITE":"AFETR","ELEMENT_SET_NO":"999","OBJECT_NAME":"STARLINK-1968","PERIAPSIS":"438.391","EPOCH":"2021-11-24T21:24:30.068352","COUNTRY_CODE":"US","REV_AT_EPOCH":"4493","TIME_SYSTEM":"UTC","DECAY_DATE":null,"TLE_LINE1":"1 47569U 21009X   21328.89201468  .00011428  00000-0  27163-3 0  9995","RCS_SIZE":"LARGE","ECCENTRICITY":"0.00019630"},{"NORAD_CAT_ID":"47570","CENTER_NAME":"EARTH","CLASSIFICATION_TYPE":"U","INCLINATION":"53.0534","APOAPSIS":"548.631","EPHEMERIS_TYPE":"0","GP_ID":"190424422","OBJECT_TYPE":"PAYLOAD","BSTAR":"0.00007871600000","MEAN_ANOMALY":"282.2269","FILE":"3223205","REF_FRAME":"TEME","LAUNCH_DATE":"2021-02-04","MEAN_MOTION_DOT":"0.00000891","RCS_SIZE":"LARGE","ECCENTRICITY":"0.00020520","TIME_SYSTEM":"UTC","REV_AT_EPOCH":"4507","TLE_LINE1":"1 47570U 21009Y   21328.88891180  .00000891  00000-0  78716-4 0  9995","DECAY_DATE":null,"SITE":"AFETR","MEAN_MOTION":"15.06401319","ARG_OF_PERICENTER":"77.8950","OBJECT_NAME":"STARLINK-1969","PERIAPSIS":"545.788","EPOCH":"2021-11-24T21:20:01.979520","COUNTRY_CODE":"US","ELEMENT_SET_NO":"999","MEAN_MOTION_DDOT":"0.0000000000000","MEAN_ELEMENT_THEORY":"SGP4","TLE_LINE2":"2 47570  53.0534 190.7762 0002052  77.8950 282.2269 15.06401319 45079","PERIOD":"95.592","SEMIMAJOR_AXIS":"6925.345","RA_OF_ASC_NODE":"190.7762","OBJECT_ID":"2021-009Y"},{"OBJECT_TYPE":"PAYLOAD","APOAPSIS":"548.525","EPHEMERIS_TYPE":"0","GP_ID":"190397960","INCLINATION":"53.0553","CLASSIFICATION_TYPE":"U","NORAD_CAT_ID":"47571","CENTER_NAME":"EARTH","MEAN_MOTION_DOT":"-0.00000581","LAUNCH_DATE":"2021-02-04","MEAN_ANOMALY":"291.0710","FILE":"3223022","REF_FRAME":"TEME","BSTAR":"-0.00002010700000","DECAY_DATE":null,"TLE_LINE1":"1 47571U 21009Z   21328.03654066 -.00000581  00000-0 -20107-4 0  9992","REV_AT_EPOCH":"4480","TIME_SYSTEM":"UTC","ECCENTRICITY":"0.00018780","RCS_SIZE":"LARGE","OBJECT_ID":"2021-009Z","PERIOD":"95.592","TLE_LINE2":"2 47571  53.0553 204.6028 0001878  69.0480 291.0710 15.06396391 44809","RA_OF_ASC_NODE":"204.6028","SEMIMAJOR_AXIS":"6925.360","MEAN_ELEMENT_THEORY":"SGP4","MEAN_MOTION_DDOT":"0.0000000000000","ELEMENT_SET_NO":"999","OBJECT_NAME":"STARLINK-1970","PERIAPSIS":"545.924","COUNTRY_CODE":"US","EPOCH":"2021-11-24T00:52:37.113024","ARG_OF_PERICENTER":"69.0480","MEAN_MOTION":"15.06396391","SITE":"AFETR"},{"OBJECT_ID":"2021-009AA","SEMIMAJOR_AXIS":"6925.333","RA_OF_ASC_NODE":"201.3900","TLE_LINE2":"2 47572  53.0547 201.3900 0002196  75.5656 284.5577 15.06405014 44910","PERIOD":"95.592","MEAN_ELEMENT_THEORY":"SGP4","MEAN_MOTION_DDOT":"0.0000000000000","ELEMENT_SET_NO":"999","EPOCH":"2021-11-24T17:57:00.507456","COUNTRY_CODE":"US","OBJECT_NAME":"STARLINK-1971","PERIAPSIS":"545.677","ARG_OF_PERICENTER":"75.5656","MEAN_MOTION":"15.06405014","SITE":"AFETR","DECAY_DATE":null,"TLE_LINE1":"1 47572U 21009AA  21328.74792254 -.00001318  00000-0 -69555-4 0  9992","REV_AT_EPOCH":"4491","TIME_SYSTEM":"UTC","ECCENTRICITY":"0.00021960","RCS_SIZE":"LARGE","MEAN_MOTION_DOT":"-0.00001318","LAUNCH_DATE":"2021-02-04","FILE":"3223205","MEAN_ANOMALY":"284.5577","REF_FRAME":"TEME","BSTAR":"-0.00006955500000","OBJECT_TYPE":"PAYLOAD","GP_ID":"190425424","APOAPSIS":"548.719","EPHEMERIS_TYPE":"0","CLASSIFICATION_TYPE":"U","INCLINATION":"53.0547","CENTER_NAME":"EARTH","NORAD_CAT_ID":"47572"},{"ELEMENT_SET_NO":"999","PERIAPSIS":"545.934","OBJECT_NAME":"STARLINK-1975","COUNTRY_CODE":"US","EPOCH":"2021-11-24T01:29:46.407552","ARG_OF_PERICENTER":"68.8279","MEAN_MOTION":"15.06396782","SITE":"AFETR","OBJECT_ID":"2021-009AB","TLE_LINE2":"2 47573  53.0539 204.4703 0001862  68.8279 291.2908 15.06396782 44804","PERIOD":"95.592","SEMIMAJOR_AXIS":"6925.358","RA_OF_ASC_NODE":"204.4703","MEAN_ELEMENT_THEORY":"SGP4","MEAN_MOTION_DDOT":"0.0000000000000","ECCENTRICITY":"0.00018620","RCS_SIZE":"LARGE","DECAY_DATE":null,"TLE_LINE1":"1 47573U 21009AB  21328.06234268 -.00000646  00000-0 -24492-4 0  9998","REV_AT_EPOCH":"4480","TIME_SYSTEM":"UTC","MEAN_MOTION_DOT":"-0.00000646","LAUNCH_DATE":"2021-02-04","MEAN_ANOMALY":"291.2908","FILE":"3223022","REF_FRAME":"TEME","BSTAR":"-0.00002449200000","INCLINATION":"53.0539","CLASSIFICATION_TYPE":"U","NORAD_CAT_ID":"47573","CENTER_NAME":"EARTH","OBJECT_TYPE":"PAYLOAD","EPHEMERIS_TYPE":"0","APOAPSIS":"548.513","GP_ID":"190398448"},{"MEAN_ELEMENT_THEORY":"SGP4","MEAN_MOTION_DDOT":"0.0000000000000","OBJECT_ID":"2021-009AC","TLE_LINE2":"2 47574  53.0558 230.8301 0002072  67.7838 292.3370 15.06404542 44502","PERIOD":"95.592","SEMIMAJOR_AXIS":"6925.335","RA_OF_ASC_NODE":"230.8301","ARG_OF_PERICENTER":"67.7838","MEAN_MOTION":"15.06404542","SITE":"AFETR","ELEMENT_SET_NO":"999","OBJECT_NAME":"STARLINK-1976","PERIAPSIS":"545.765","COUNTRY_CODE":"US","EPOCH":"2021-11-24T20:58:47.718624","REV_AT_EPOCH":"4450","TIME_SYSTEM":"UTC","DECAY_DATE":null,"TLE_LINE1":"1 47574U 21009AC  21328.87416341  .00000347  00000-0  42205-4 0  9990","RCS_SIZE":"LARGE","ECCENTRICITY":"0.00020720","REF_FRAME":"TEME","FILE":"3223205","MEAN_ANOMALY":"292.3370","BSTAR":"0.00004220500000","MEAN_MOTION_DOT":"0.00000347","LAUNCH_DATE":"2021-02-04","OBJECT_TYPE":"PAYLOAD","EPHEMERIS_TYPE":"0","APOAPSIS":"548.635","GP_ID":"190424922","NORAD_CAT_ID":"47574","CENTER_NAME":"EARTH","INCLINATION":"53.0558","CLASSIFICATION_TYPE":"U"},{"FILE":"3223205","MEAN_ANOMALY":"287.7886","REF_FRAME":"TEME","BSTAR":"0.00007994900000","MEAN_MOTION_DOT":"0.00000909","LAUNCH_DATE":"2021-02-04","CENTER_NAME":"EARTH","NORAD_CAT_ID":"47575","INCLINATION":"53.0551","CLASSIFICATION_TYPE":"U","OBJECT_TYPE":"PAYLOAD","GP_ID":"190424670","APOAPSIS":"548.586","EPHEMERIS_TYPE":"0","ARG_OF_PERICENTER":"72.3321","SITE":"AFETR","MEAN_MOTION":"15.06403477","ELEMENT_SET_NO":"999","COUNTRY_CODE":"US","EPOCH":"2021-11-24T20:42:51.989472","PERIAPSIS":"545.820","OBJECT_NAME":"STARLINK-1977","MEAN_ELEMENT_THEORY":"SGP4","MEAN_MOTION_DDOT":"0.0000000000000","OBJECT_ID":"2021-009AD","RA_OF_ASC_NODE":"230.8820","SEMIMAJOR_AXIS":"6925.338","TLE_LINE2":"2 47575  53.0551 230.8820 0001997  72.3321 287.7886 15.06403477 44502","PERIOD":"95.592","RCS_SIZE":"LARGE","ECCENTRICITY":"0.00019970","REV_AT_EPOCH":"4450","TIME_SYSTEM":"UTC","DECAY_DATE":null,"TLE_LINE1":"1 47575U 21009AD  21328.86310173  .00000909  00000-0  79949-4 0  9995"},{"RCS_SIZE":"LARGE","ECCENTRICITY":"0.00017630","REV_AT_EPOCH":"4505","TIME_SYSTEM":"UTC","DECAY_DATE":null,"TLE_LINE1":"1 47576U 21009AE  21328.76358814 -.00000868  00000-0 -39381-4 0  9991","ARG_OF_PERICENTER":"69.3080","SITE":"AFETR","MEAN_MOTION":"15.06405935","ELEMENT_SET_NO":"999","OBJECT_NAME":"STARLINK-1978","PERIAPSIS":"545.974","EPOCH":"2021-11-24T18:19:34.015296","COUNTRY_CODE":"US","MEAN_ELEMENT_THEORY":"SGP4","MEAN_MOTION_DDOT":"0.0000000000000","OBJECT_ID":"2021-009AE","TLE_LINE2":"2 47576  53.0517 191.3387 0001763  69.3080 290.8098 15.06405935 45055","PERIOD":"95.592","RA_OF_ASC_NODE":"191.3387","SEMIMAJOR_AXIS":"6925.330","NORAD_CAT_ID":"47576","CENTER_NAME":"EARTH","CLASSIFICATION_TYPE":"U","INCLINATION":"53.0517","OBJECT_TYPE":"PAYLOAD","EPHEMERIS_TYPE":"0","APOAPSIS":"548.416","GP_ID":"190425924","FILE":"3223205","MEAN_ANOMALY":"290.8098","REF_FRAME":"TEME","BSTAR":"-0.00003938100000","MEAN_MOTION_DOT":"-0.00000868","LAUNCH_DATE":"2021-02-04"},{"SITE":"AFETR","MEAN_MOTION":"15.06387021","ARG_OF_PERICENTER":"73.9084","EPOCH":"2021-11-24T19:18:37.476288","COUNTRY_CODE":"US","OBJECT_NAME":"STARLINK-1979","PERIAPSIS":"545.736","ELEMENT_SET_NO":"999","MEAN_MOTION_DDOT":"0.0000000000000","MEAN_ELEMENT_THEORY":"SGP4","RA_OF_ASC_NODE":"206.1604","SEMIMAJOR_AXIS":"6925.388","TLE_LINE2":"2 47577  53.0559 206.1604 0002191  73.9084 286.2146 15.06387021 44855","PERIOD":"95.593","OBJECT_ID":"2021-009AF","RCS_SIZE":"LARGE","ECCENTRICITY":"0.00021910","TIME_SYSTEM":"UTC","REV_AT_EPOCH":"4485","TLE_LINE1":"1 47577U 21009AF  21328.80460042 -.00000827  00000-0 -36613-4 0  9994","DECAY_DATE":null,"BSTAR":"-0.00003661300000","MEAN_ANOMALY":"286.2146","FILE":"3223205","REF_FRAME":"TEME","LAUNCH_DATE":"2021-02-04","MEAN_MOTION_DOT":"-0.00000827","CENTER_NAME":"EARTH","NORAD_CAT_ID":"47577","INCLINATION":"53.0559","CLASSIFICATION_TYPE":"U","GP_ID":"190425675","EPHEMERIS_TYPE":"0","APOAPSIS":"548.771","OBJECT_TYPE":"PAYLOAD"},{"OBJECT_TYPE":"PAYLOAD","APOAPSIS":"548.654","EPHEMERIS_TYPE":"0","GP_ID":"190424423","INCLINATION":"53.0548","CLASSIFICATION_TYPE":"U","NORAD_CAT_ID":"47578","CENTER_NAME":"EARTH","MEAN_MOTION_DOT":"-0.00000405","LAUNCH_DATE":"2021-02-04","FILE":"3223205","MEAN_ANOMALY":"282.7084","REF_FRAME":"TEME","BSTAR":"-0.00000825030000","DECAY_DATE":null,"TLE_LINE1":"1 47578U 21009AG  21328.79861013 -.00000405  00000-0 -82503-5 0  9998","REV_AT_EPOCH":"4477","TIME_SYSTEM":"UTC","ECCENTRICITY":"0.00020710","RCS_SIZE":"LARGE","OBJECT_ID":"2021-009AG","PERIOD":"95.592","TLE_LINE2":"2 47578  53.0548 211.1692 0002071  77.4136 282.7084 15.06397814 44775","RA_OF_ASC_NODE":"211.1692","SEMIMAJOR_AXIS":"6925.355","MEAN_ELEMENT_THEORY":"SGP4","MEAN_MOTION_DDOT":"0.0000000000000","ELEMENT_SET_NO":"999","OBJECT_NAME":"STARLINK-1980","PERIAPSIS":"545.786","EPOCH":"2021-11-24T19:09:59.915232","COUNTRY_CODE":"US","ARG_OF_PERICENTER":"77.4136","SITE":"AFETR","MEAN_MOTION":"15.06397814"}];
